STARLETTE               
1 07646U 75010A   24220.54905990 -.00000124  00000+0  15065-4 0  9995
2 07646  49.8232 263.2840 0205583 341.1271  18.2082 13.82329818500663
LAGEOS 1                
1 08820U 76039A   24220.55891222 -.00000001  00000+0  00000+0 0  9997
2 08820 109.8625 306.8881 0044073  87.7277 257.5137  6.38665139869797
AJISAI (EGS)            
1 16908U 86061A   24220.61459361 -.00000083  00000+0  98240-4 0  9998
2 16908  50.0094  73.9770 0011105 253.2694 150.3503 12.44506665395896
COSMOS 1989 (ETALON 1)  
1 19751U 89001C   24220.63791600 -.00000003  00000+0  00000+0 0  9995
2 19751  64.5752  95.4695 0023774 215.9026 337.6546  2.13156277276902
COSMOS 2024 (ETALON 2)  
1 20026U 89039C   24219.86848598 -.00000079  00000+0  00000+0 0  9998
2 20026  65.3145 333.8369 0019608 216.8214 147.3650  2.13204542274023
LAGEOS 2                
1 22195U 92070B   24220.30310340 -.00000009  00000+0  00000+0 0  9999
2 22195  52.6801 335.6981 0137493 250.0386 127.9620  6.47293396751479
STELLA                  
1 22824U 93061B   24220.61728233 -.00000008  00000+0  15603-4 0  9996
2 22824  98.8749 267.6942 0007239  55.1880  52.3739 14.27429398607965
LARETS                  
1 27944U 03042F   24220.59296198  .00000219  00000+0  51635-4 0  9999
2 27944  98.3224   1.3032 0012270   1.2580 358.8651 14.63545877114094
LARES                   
1 38077U 12006A   24220.38770157 -.00000050  00000+0 -69914-4 0  9991
2 38077  69.4928  11.6969 0010669 311.7143  48.2970 12.54931523571906
LARES-2                 
1 53105U 22080A   24220.50878152  .00000010  00000+0  00000+0 0  9991
2 53105  70.1383 178.0875 0004924 127.0762 233.0167  6.38965230 48307
